{
  "norad_id": 39237,
  "name": "AMOS-4",
  "history": [
    {
      "epoch": "2026-03-28T21:56:24.431424",
      "apogee_km": 35800.745305071956,
      "perigee_km": 35772.326315597784,
      "latitude_deg": -0.004143214915663428,
      "longitude_deg": -8.539520640159026,
      "semi_major_axis_km": 42164.67281033487,
      "eccentricity": 0.000337,
      "inclination_deg": 0.0095,
      "raan_deg": 178.0304,
      "arg_perigee_deg": 187.8342,
      "mean_anomaly_deg": 214.5479,
      "mean_motion_rev_day": 1.00271996
    },
    {
      "epoch": "2026-03-29T03:04:22.092672",
      "apogee_km": 35800.71722201941,
      "perigee_km": 35772.331971832355,
      "latitude_deg": 0.006479381896144394,
      "longitude_deg": 11.991214080015197,
      "semi_major_axis_km": 42164.661596925886,
      "eccentricity": 0.0003366,
      "inclination_deg": 0.0097,
      "raan_deg": 177.06,
      "arg_perigee_deg": 188.9426,
      "mean_anomaly_deg": 291.6112,
      "mean_motion_rev_day": 1.00272036
    }
  ]
}